{
  "type": "FeatureCollection",
  "features": [
    {
      "type": "Feature",
      "properties": {
        "norad_id": 34614,
        "name": "COSMOS 2251 DEB",
        "group": "cosmos-2251-debris",
        "lat": -41.862617593183835,
        "lon": -174.7295451473705,
        "alt_km": 910.9671461134949,
        "timestamp": "2025-12-09T04:51:47.886206+00:00",
        "meta_object_name": "COSMOS 2251 DEB",
        "meta_object_id": "1993-036WK",
        "meta_epoch": "2025-12-08T00:50:06.573984",
        "meta_mean_motion": 14.17293414,
        "meta_eccentricity": 0.01972668,
        "meta_inclination": 73.8753,
        "meta_ra_of_asc_node": 352.3472,
        "meta_arg_of_pericenter": 346.8696,
        "meta_mean_anomaly": 42.634,
        "meta_ephemeris_type": 0,
        "meta_classification_type": "U",
        "meta_norad_cat_id": 34614,
        "meta_element_set_no": 999,
        "meta_rev_at_epoch": 84700,
        "meta_bstar": 0.007090469,
        "meta_mean_motion_dot": 0.00017361,
        "meta_mean_motion_ddot": 0,
        "tle_line1": "1 34614U 93036WK  25342.03479831  .00017361  00000+0  70905-2 0  9990",
        "tle_line2": "2 34614  73.8753 352.3472 0197266 346.8696  42.6340 14.17293414847006"
      },
      "geometry": {
        "type": "Point",
        "coordinates": [
          -174.7295451473705,
          -41.862617593183835
        ]
      }
    },
    {
      "type": "Feature",
      "properties": {
        "norad_id": 34615,
        "name": "COSMOS 2251 DEB",
        "group": "cosmos-2251-debris",
        "lat": -48.16169425892169,
        "lon": 138.49948835393752,
        "alt_km": 793.5794115422204,
        "timestamp": "2025-12-09T04:51:47.886216+00:00",
        "meta_object_name": "COSMOS 2251 DEB",
        "meta_object_id": "1993-036WL",
        "meta_epoch": "2025-12-08T20:46:10.769088",
        "meta_mean_motion": 13.52200861,
        "meta_eccentricity": 0.0401602,
        "meta_inclination": 74.005,
        "meta_ra_of_asc_node": 300.3553,
        "meta_arg_of_pericenter": 208.401,
        "meta_mean_anomaly": 179.5639,
        "meta_ephemeris_type": 0,
        "meta_classification_type": "U",
        "meta_norad_cat_id": 34615,
        "meta_element_set_no": 999,
        "meta_rev_at_epoch": 82763,
        "meta_bstar": 0.00025814,
        "meta_mean_motion_dot": 2.6e-06,
        "meta_mean_motion_ddot": 0,
        "tle_line1": "1 34615U 93036WL  25342.86540242  .00000260  00000+0  25814-3 0  9997",
        "tle_line2": "2 34615  74.0050 300.3553 0401602 208.4010 179.5639 13.52200861827638"
      },
      "geometry": {
        "type": "Point",
        "coordinates": [
          138.49948835393752,
          -48.16169425892169
        ]
      }
    },
    {
      "type": "Feature",
      "properties": {
        "norad_id": 34619,
        "name": "COSMOS 2251 DEB",
        "group": "cosmos-2251-debris",
        "lat": 32.148124028583766,
        "lon": 16.378087870663666,
        "alt_km": 737.0050866708343,
        "timestamp": "2025-12-09T04:51:47.886226+00:00",
        "meta_object_name": "COSMOS 2251 DEB",
        "meta_object_id": "1993-036WQ",
        "meta_epoch": "2025-12-08T15:04:37.178112",
        "meta_mean_motion": 14.64631066,
        "meta_eccentricity": 0.0094652,
        "meta_inclination": 74.0441,
        "meta_ra_of_asc_node": 207.84,
        "meta_arg_of_pericenter": 303.6606,
        "meta_mean_anomaly": 55.556,
        "meta_ephemeris_type": 0,
        "meta_classification_type": "U",
        "meta_norad_cat_id": 34619,
        "meta_element_set_no": 999,
        "meta_rev_at_epoch": 89238,
        "meta_bstar": 0.00040564,
        "meta_mean_motion_dot": 2.268e-05,
        "meta_mean_motion_ddot": 0,
        "tle_line1": "1 34619U 93036WQ  25342.62820808  .00002268  00000+0  40564-3 0  9993",
        "tle_line2": "2 34619  74.0441 207.8400 0094652 303.6606  55.5560 14.64631066892389"
      },
      "geometry": {
        "type": "Point",
        "coordinates": [
          16.378087870663666,
          32.148124028583766
        ]
      }
    },
    {
      "type": "Feature",
      "properties": {
        "norad_id": 34620,
        "name": "COSMOS 2251 DEB",
        "group": "cosmos-2251-debris",
        "lat": -40.363934810420986,
        "lon": 60.22714165764014,
        "alt_km": 691.3298578737622,
        "timestamp": "2025-12-09T04:51:47.886236+00:00",
        "meta_object_name": "COSMOS 2251 DEB",
        "meta_object_id": "1993-036WR",
        "meta_epoch": "2025-12-08T02:58:43.878144",
        "meta_mean_motion": 14.4898406,
        "meta_eccentricity": 0.00813097,
        "meta_inclination": 74.0508,
        "meta_ra_of_asc_node": 228.1788,
        "meta_arg_of_pericenter": 265.6594,
        "meta_mean_anomaly": 93.5272,
        "meta_ephemeris_type": 0,
        "meta_classification_type": "U",
        "meta_norad_cat_id": 34620,
        "meta_element_set_no": 999,
        "meta_rev_at_epoch": 86760,
        "meta_bstar": 0.0028422216,
        "meta_mean_motion_dot": 0.00011226,
        "meta_mean_motion_ddot": 0,
        "tle_line1": "1 34620U 93036WR  25342.12411896  .00011226  00000+0  28422-2 0  9995",
        "tle_line2": "2 34620  74.0508 228.1788 0081309 265.6594  93.5272 14.48984060867604"
      },
      "geometry": {
        "type": "Point",
        "coordinates": [
          60.22714165764014,
          -40.363934810420986
        ]
      }
    },
    {
      "type": "Feature",
      "properties": {
        "norad_id": 34622,
        "name": "COSMOS 2251 DEB",
        "group": "cosmos-2251-debris",
        "lat": -23.354454745206997,
        "lon": 140.45477222282219,
        "alt_km": 896.7735629351155,
        "timestamp": "2025-12-09T04:51:47.886246+00:00",
        "meta_object_name": "COSMOS 2251 DEB",
        "meta_object_id": "1993-036WT",
        "meta_epoch": "2025-12-08T16:55:13.351296",
        "meta_mean_motion": 14.22019913,
        "meta_eccentricity": 0.0104179,
        "meta_inclination": 74.043,
        "meta_ra_of_asc_node": 314.2505,
        "meta_arg_of_pericenter": 37.7275,
        "meta_mean_anomaly": 139.8016,
        "meta_ephemeris_type": 0,
        "meta_classification_type": "U",
        "meta_norad_cat_id": 34622,
        "meta_element_set_no": 999,
        "meta_rev_at_epoch": 86402,
        "meta_bstar": 0.0018808,
        "meta_mean_motion_dot": 4.371e-05,
        "meta_mean_motion_ddot": 0,
        "tle_line1": "1 34622U 93036WT  25342.70501564  .00004371  00000+0  18808-2 0  9993",
        "tle_line2": "2 34622  74.0430 314.2505 0104179  37.7275 139.8016 14.22019913864020"
      },
      "geometry": {
        "type": "Point",
        "coordinates": [
          140.45477222282219,
          -23.354454745206997
        ]
      }
    },
    {
      "type": "Feature",
      "properties": {
        "norad_id": 34626,
        "name": "COSMOS 2251 DEB",
        "group": "cosmos-2251-debris",
        "lat": 63.65426918754058,
        "lon": 115.49211391396308,
        "alt_km": 636.0464647670797,
        "timestamp": "2025-12-09T04:51:47.886256+00:00",
        "meta_object_name": "COSMOS 2251 DEB",
        "meta_object_id": "1993-036WX",
        "meta_epoch": "2025-12-08T17:45:31.521024",
        "meta_mean_motion": 14.72120524,
        "meta_eccentricity": 0.0026359,
        "meta_inclination": 74.0486,
        "meta_ra_of_asc_node": 331.6698,
        "meta_arg_of_pericenter": 61.126,
        "meta_mean_anomaly": 118.7698,
        "meta_ephemeris_type": 0,
        "meta_classification_type": "U",
        "meta_norad_cat_id": 34626,
        "meta_element_set_no": 999,
        "meta_rev_at_epoch": 89085,
        "meta_bstar": 0.0015266,
        "meta_mean_motion_dot": 9.644e-05,
        "meta_mean_motion_ddot": 0,
        "tle_line1": "1 34626U 93036WX  25342.73994816  .00009644  00000+0  15266-2 0  9999",
        "tle_line2": "2 34626  74.0486 331.6698 0026359  61.1260 118.7698 14.72120524890857"
      },
      "geometry": {
        "type": "Point",
        "coordinates": [
          115.49211391396308,
          63.65426918754058
        ]
      }
    },
    {
      "type": "Feature",
      "properties": {
        "norad_id": 34634,
        "name": "COSMOS 2251 DEB",
        "group": "cosmos-2251-debris",
        "lat": 49.99292485936094,
        "lon": -158.24843362407785,
        "alt_km": 673.378049411056,
        "timestamp": "2025-12-09T04:51:47.886266+00:00",
        "meta_object_name": "COSMOS 2251 DEB",
        "meta_object_id": "1993-036XF",
        "meta_epoch": "2025-12-08T14:00:44.017920",
        "meta_mean_motion": 14.5564051,
        "meta_eccentricity": 0.0044395,
        "meta_inclination": 74.0528,
        "meta_ra_of_asc_node": 42.8408,
        "meta_arg_of_pericenter": 151.4452,
        "meta_mean_anomaly": 334.5275,
        "meta_ephemeris_type": 0,
        "meta_classification_type": "U",
        "meta_norad_cat_id": 34634,
        "meta_element_set_no": 999,
        "meta_rev_at_epoch": 88721,
        "meta_bstar": 0.00062738,
        "meta_mean_motion_dot": 2.748e-05,
        "meta_mean_motion_ddot": 0,
        "tle_line1": "1 34634U 93036XF  25342.58384280  .00002748  00000+0  62738-3 0  9994",
        "tle_line2": "2 34634  74.0528  42.8408 0044395 151.4452 334.5275 14.55640510887217"
      },
      "geometry": {
        "type": "Point",
        "coordinates": [
          -158.24843362407785,
          49.99292485936094
        ]
      }
    }
  ]
}